{
    "CCSDS_OMM_VERS": "3.0",
    "COMMENT": "GENERATED VIA SPACE-TRACK.ORG API",
    "CREATION_DATE": "2025-05-21T17:16:54",
    "ORIGINATOR": "18 SPCS",
    "OBJECT_NAME": "GALILEO 17 (26D)",
    "OBJECT_ID": "2016-069C",
    "CENTER_NAME": "EARTH",
    "REF_FRAME": "TEME",
    "TIME_SYSTEM": "UTC",
    "MEAN_ELEMENT_THEORY": "SGP4",
    "EPOCH": "2025-05-21T03:06:10.561824",
    "MEAN_MOTION": "1.70474402",
    "ECCENTRICITY": "0.00056810",
    "INCLINATION": "55.2632",
    "RA_OF_ASC_NODE": "111.9491",
    "ARG_OF_PERICENTER": "296.0417",
    "MEAN_ANOMALY": "63.8764",
    "EPHEMERIS_TYPE": "0",
    "CLASSIFICATION_TYPE": "U",
    "NORAD_CAT_ID": "41861",
    "ELEMENT_SET_NO": "999",
    "REV_AT_EPOCH": "5283",
    "BSTAR": "0.00000000000000",
    "MEAN_MOTION_DOT": "0.00000062",
    "MEAN_MOTION_DDOT": "0.0000000000000",
    "SEMIMAJOR_AXIS": "29600.274",
    "PERIOD": "844.702",
    "APOAPSIS": "23238.954",
    "PERIAPSIS": "23205.323",
    "OBJECT_TYPE": "PAYLOAD",
    "RCS_SIZE": "LARGE",
    "COUNTRY_CODE": "ESA",
    "LAUNCH_DATE": "2016-11-17",
    "SITE": "FRGUI",
    "DECAY_DATE": null,
    "FILE": "4735227",
    "GP_ID": "288090690",
    "TLE_LINE0": "0 GALILEO 17 (26D)",
    "TLE_LINE1": "1 41861U 16069C   25141.12928891  .00000062  00000-0  00000-0 0  9993",
    "TLE_LINE2": "2 41861  55.2632 111.9491 0005681 296.0417  63.8764  1.70474402 52831"
}